COSMOS 2361 [-]         
1 25590U 98076A   21171.33461229  .00000037  00000-0  23340-4 0  9999
2 25590  82.9342 113.8317 0032502 133.1808 339.7897 13.72997104126841
COSMOS 2378 [-]         
1 26818U 01023A   21169.50182404  .00000023  00000-0  81713-5 0  9994
2 26818  82.9269 133.8870 0034476  87.6044 272.9068 13.73955340  4330
COSMOS 2389 [-]         
1 27436U 02026A   21171.26784781  .00000024  00000-0  93844-5 0  9996
2 27436  82.9518  77.9779 0045319 307.4395 171.6760 13.74956645956655
COSMOS 2398 [-]         
1 27818U 03023A   21169.41491026  .00000038  00000-0  25414-4 0  9991
2 27818  82.9498  39.7678 0031186 345.3153  14.7092 13.72191572903464
COSMOS 2407 [+]         
1 28380U 04028A   21169.44791941  .00000011  00000-0 -39198-5 0  9991
2 28380  82.9603 345.8911 0038483 316.9887  42.8270 13.76091879849106
COSMOS 2414 [+]         
1 28521U 05002A   21169.54827777  .00000040  00000-0  19891-4 0  9997
2 28521  82.9489 343.3393 0041203 129.6879 230.7931 13.87633707831080
COSMOS 2429 [-]         
1 32052U 07038A   21171.11944686  .00000032  00000-0  18350-4 0  9997
2 32052  82.9808 109.2733 0037099 286.6185  73.0899 13.74941225691200
COSMOS 2454 [-]         
1 35635U 09039A   21169.55122665  .00000022  00000-0  49692-5 0  9993
2 35635  82.9549 330.3600 0020776  79.2718 281.0779 13.89663097604154
COSMOS 2463 [+]         
1 36519U 10017A   21171.56144869  .00000111  00000-0  10640-3 0  9995
2 36519  82.9595 148.6289 0036984 144.7205 215.6407 13.71457247558188
